OBJECT_NAME,OBJECT_ID,EPOCH,MEAN_MOTION,ECCENTRICITY,INCLINATION,RA_OF_ASC_NODE,ARG_OF_PERICENTER,MEAN_ANOMALY,EPHEMERIS_TYPE,CLASSIFICATION_TYPE,NORAD_CAT_ID,ELEMENT_SET_NO,REV_AT_EPOCH,BSTAR,MEAN_MOTION_DOT,MEAN_MOTION_DDOT
SIRION PATHFINDER-2,2018-099B,2026-05-13T02:17:32.962560,15.14216957,.0010238,97.4282,182.9909,67.3448,292.8866,0,U,43759,999,40731,.18446396E-3,.3308E-4,0
CORVUS BC4,2018-099K,2026-05-13T01:18:59.839200,15.12199523,.00099397,97.4099,177.0664,118.3679,241.8555,0,U,43767,999,40709,.16163095E-3,.273E-4,0
M2 PATHFINDER,2020-037E,2026-05-13T01:34:03.794016,15.04519449,.00101005,97.8165,323.9044,271.8573,88.1495,0,U,45727,999,32021,.12006284E-3,.1619E-4,0
NETSAT-4,2020-068U,2026-05-13T05:46:23.752416,15.42675205,.00076546,97.8616,138.7072,89.7234,270.4889,0,U,46504,999,31038,.24647132E-3,.10661E-3,0
NETSAT-3,2020-068V,2026-05-12T23:02:02.793984,15.41441122,.00075444,97.8666,136.6674,103.0433,257.1655,0,U,46505,999,31025,.29385726E-3,.12217E-3,0
NETSAT-1,2020-068W,2026-05-13T05:47:14.567712,15.33767100,.00067664,97.8751,131.7042,121.5134,238.6769,0,U,46506,999,30994,.23699065E-3,.7656E-4,0
NETSAT-2,2020-068X,2026-05-13T06:14:32.380800,15.44480336,.00062066,97.8632,138.5054,110.5100,249.6814,0,U,46507,999,31034,.29294836E-3,.13488E-3,0
GREENCUBE (IO-117),2022-080E,2026-05-12T13:02:43.634112,6.42583333,.0008862,70.1440,310.6463,297.7055,62.2705,0,U,53109,999,8977,0,-.3E-7,0
SITRO-AIS 5 (KATYS),2023-091L,2026-05-13T04:31:25.163616,15.28627221,.00107433,97.5084,196.7745,218.8395,141.2074,0,U,57176,999,15899,.2489169E-3,.6864E-4,0
SITRO-AIS 6 (CHIRKIN),2023-091AC,2026-05-13T05:16:16.768992,15.25251290,.00108991,97.5090,196.1061,222.4728,137.5667,0,U,57192,999,15895,.13723944E-3,.3381E-4,0
SITRO-AIS 8 (ANOKHIN),2023-091AD,2026-05-13T04:47:25.238688,15.31160809,.00100536,97.5079,198.2366,213.9247,146.1352,0,U,57193,999,15909,.25243985E-3,.753E-4,0
SITRO-AIS 7 (FARTUSHNIY),2023-091AE,2026-05-13T05:10:47.756928,15.24957211,.00107241,97.5088,195.9449,223.6621,136.3769,0,U,57194,999,15894,.13292834E-3,.3243E-4,0
SITRO-AIS 10 (BURDAEV),2023-091AK,2026-05-13T04:17:11.271552,15.37256358,.00070647,97.5100,202.9199,185.3411,174.7759,0,U,57199,999,15938,.33547589E-3,.12173E-3,0
SITRO-AIS 9 (SHCHUKIN),2023-091AM,2026-05-13T03:06:07.415136,15.36802379,.00072608,97.5098,202.6258,186.2793,173.8361,0,U,57201,999,15936,.35091889E-3,.12553E-3,0
SITRO-AIS 12 (SMIRENNIY),2023-091AQ,2026-05-13T04:35:47.366016,15.37087342,.0007083,97.5110,203.1349,180.0470,180.0775,0,U,57204,999,15939,.30932956E-3,.11155E-3,0
SITRO-AIS 11 (SHEFFER),2023-091AU,2026-05-13T05:08:28.858560,15.37479043,.0007017,97.5109,203.3835,179.7274,180.3975,0,U,57208,999,15941,.31113555E-3,.11364E-3,0
SITRO-AIS 25,2024-039R,2026-05-13T04:46:25.341888,14.93261422,.01474643,95.3921,211.0532,90.5116,271.3009,0,U,59066,999,11950,.20683338E-3,.2648E-4,0
SITRO-AIS 26,2024-039S,2026-05-13T06:18:07.854624,14.93064820,.01477904,95.3922,211.0018,90.8158,271.0003,0,U,59067,999,11950,.20370085E-3,.2595E-4,0
SITRO-AIS 27,2024-039T,2026-05-13T07:25:44.635296,14.93477100,.01469909,95.3925,211.2895,89.3703,272.4362,0,U,59068,999,11953,.23659737E-3,.3047E-4,0
SITRO-AIS 28,2024-039U,2026-05-13T06:54:25.132896,14.93510481,.01467927,95.3924,211.3199,89.3138,272.4904,0,U,59071,999,11953,.25208563E-3,.325E-4,0
GRBBETA,2024-128C,2026-05-12T23:23:57.016608,15.06341838,.00453026,61.9907,339.7812,127.3925,233.1305,0,U,60237,999,10096,.19345903E-3,.2703E-4,0
OOV-CUBE (TUBSAT-30),2024-128F,2026-05-13T02:53:14.043552,15.02589480,.00489092,61.9950,347.8334,126.1268,234.4365,0,U,60240,999,10084,.12162231E-3,.145E-4,0
ROBUSTA-3A (MEDITERRANEE),2024-128J,2026-05-13T03:16:30.368640,15.11107833,.00460046,61.9870,332.1433,121.2475,239.3140,0,U,60243,999,10112,.2783468E-3,.4576E-4,0
LASARSAT,2024-247Q,2026-05-13T04:41:55.729824,15.44164427,.00047733,44.9734,98.4968,120.9892,239.1466,0,U,62391,999,7790,.5028983E-3,.23285E-3,0
CROCUBE,2024-247T,2026-05-13T04:02:10.019328,15.45750204,.00043929,44.9712,96.5072,123.9905,236.1402,0,U,62394,999,7792,.44258892E-3,.21595E-3,0
FORESAIL-1 PRIME,2025-276DS,2026-05-12T22:33:51.200352,15.18368177,.00018,97.4209,206.8634,188.1800,171.9405,0,U,66778,999,2505,.15541E-3,.3126E-4,0
KNACKSAT-2,1998-067XZ,2026-05-12T22:50:03.928704,15.56875611,.0012521,51.6274,111.2743,68.6895,291.5432,0,U,67683,999,1478,.41696E-3,.3026E-3,0
