SIRION PATHFINDER-2     
1 43759U 18099B   26133.09552040  .00003308  00000+0  18446-3 0  9994
2 43759  97.4282 182.9909 0010238  67.3448 292.8866 15.14216957407313
CORVUS BC4              
1 43767U 18099K   26133.05485925  .00002730  00000+0  16163-3 0  9998
2 43767  97.4099 177.0664 0009939 118.3679 241.8555 15.12199523407091
M2 PATHFINDER           
1 45727U 20037E   26133.06532169  .00001619  00000+0  12006-3 0  9992
2 45727  97.8165 323.9044 0010100 271.8573  88.1495 15.04519449320218
NETSAT-4                
1 46504U 20068U   26133.24055269  .00010661  00000+0  24647-3 0  9992
2 46504  97.8616 138.7072 0007654  89.7234 270.4889 15.42675205310381
NETSAT-3                
1 46505U 20068V   26132.95975456  .00012217  00000+0  29386-3 0  9993
2 46505  97.8666 136.6674 0007544 103.0433 257.1655 15.41441122310258
NETSAT-1                
1 46506U 20068W   26133.24114083  .00007656  00000+0  23699-3 0  9990
2 46506  97.8751 131.7042 0006766 121.5134 238.6769 15.33767100309949
NETSAT-2                
1 46507U 20068X   26133.26009700  .00013488  00000+0  29295-3 0  9990
2 46507  97.8632 138.5054 0006206 110.5100 249.6814 15.44480336310340
GREENCUBE (IO-117)      
1 53109U 22080E   26132.54356058 -.00000003  00000+0  00000+0 0  9992
2 53109  70.1440 310.6463 0008862 297.7055  62.2705  6.42583333 89778
SITRO-AIS 5 (KATYS)     
1 57176U 23091L   26133.18848569  .00006864  00000+0  24892-3 0  9996
2 57176  97.5084 196.7745 0010743 218.8395 141.2074 15.28627221158998
SITRO-AIS 6 (CHIRKIN)   
1 57192U 23091AC  26133.21963853  .00003381  00000+0  13724-3 0  9995
2 57192  97.5090 196.1061 0010899 222.4728 137.5667 15.25251290158959
SITRO-AIS 8 (ANOKHIN)   
1 57193U 23091AD  26133.19959767  .00007530  00000+0  25244-3 0  9992
2 57193  97.5079 198.2366 0010053 213.9247 146.1352 15.31160809159096
SITRO-AIS 7 (FARTUSHNIY)
1 57194U 23091AE  26133.21583052  .00003243  00000+0  13293-3 0  9994
2 57194  97.5088 195.9449 0010724 223.6621 136.3769 15.24957211158941
SITRO-AIS 10 (BURDAEV)  
1 57199U 23091AK  26133.17860268  .00012173  00000+0  33548-3 0  9998
2 57199  97.5100 202.9199 0007064 185.3411 174.7759 15.37256358159388
SITRO-AIS 9 (SHCHUKIN)  
1 57201U 23091AM  26133.12925249  .00012553  00000+0  35092-3 0  9996
2 57201  97.5098 202.6258 0007260 186.2793 173.8361 15.36802379159368
SITRO-AIS 12 (SMIRENNIY)
1 57204U 23091AQ  26133.19152044  .00011155  00000+0  30933-3 0  9997
2 57204  97.5110 203.1349 0007083 180.0470 180.0775 15.37087342159398
SITRO-AIS 11 (SHEFFER)  
1 57208U 23091AU  26133.21422290  .00011364  00000+0  31114-3 0  9991
2 57208  97.5109 203.3835 0007017 179.7274 180.3975 15.37479043159417
SITRO-AIS 25            
1 59066U 24039R   26133.19890442  .00002648  00000+0  20683-3 0  9997
2 59066  95.3921 211.0532 0147464  90.5116 271.3009 14.93261422119501
SITRO-AIS 26            
1 59067U 24039S   26133.26259091  .00002595  00000+0  20370-3 0  9999
2 59067  95.3922 211.0018 0147790  90.8158 271.0003 14.93064820119507
SITRO-AIS 27            
1 59068U 24039T   26133.30954439  .00003047  00000+0  23660-3 0  9991
2 59068  95.3925 211.2895 0146990  89.3703 272.4362 14.93477100119531
SITRO-AIS 28            
1 59071U 24039U   26133.28779089  .00003250  00000+0  25209-3 0  9995
2 59071  95.3924 211.3199 0146792  89.3138 272.4904 14.93510481119536
GRBBETA                 
1 60237U 24128C   26132.97496547  .00002703  00000+0  19346-3 0  9997
2 60237  61.9907 339.7812 0045302 127.3925 233.1305 15.06341838100960
OOV-CUBE (TUBSAT-30)    
1 60240U 24128F   26133.12030143  .00001450  00000+0  12162-3 0  9992
2 60240  61.9950 347.8334 0048909 126.1268 234.4365 15.02589480100844
ROBUSTA-3A (MEDITERRAN*)
1 60243U 24128J   26133.13646260  .00004576  00000+0  27835-3 0  9994
2 60243  61.9870 332.1433 0046004 121.2475 239.3140 15.11107833101120
LASARSAT                
1 62391U 24247Q   26133.19578391  .00023285  00000+0  50290-3 0  9996
2 62391  44.9734  98.4968 0004773 120.9892 239.1466 15.44164427 77902
CROCUBE                 
1 62394U 24247T   26133.16817152  .00021595  00000+0  44259-3 0  9997
2 62394  44.9712  96.5072 0004392 123.9905 236.1402 15.45750204 77925
FORESAIL-1 PRIME        
1 66778U 25276DS  26132.94017593  .00003126  00000+0  15541-3 0  9998
2 66778  97.4209 206.8634 0001800 188.1800 171.9405 15.18368177 25057
KNACKSAT-2              
1 67683U 98067XZ  26132.95143436  .00030260  00000+0  41696-3 0  9998
2 67683  51.6274 111.2743 0012521  68.6895 291.5432 15.56875611 14780
